{
    "links": {
        "self": "http://www.neowsapp.com/rest/v1/neo/3555019?api_key=iIulBulltgU6a56xZRHN4H3l9WmuAYTsLGpBGhQ2"
    },
    "id": "3555019",
    "neo_reference_id": "3555019",
    "name": "(2011 AG3)",
    "designation": "2011 AG3",
    "nasa_jpl_url": "http://ssd.jpl.nasa.gov/sbdb.cgi?sstr=3555019",
    "absolute_magnitude_h": 22.9,
    "estimated_diameter": {
        "kilometers": {
            "estimated_diameter_min": 0.0699125232,
            "estimated_diameter_max": 0.1563291544
        },
        "meters": {
            "estimated_diameter_min": 69.9125232246,
            "estimated_diameter_max": 156.3291544087
        },
        "miles": {
            "estimated_diameter_min": 0.0434416145,
            "estimated_diameter_max": 0.097138403
        },
        "feet": {
            "estimated_diameter_min": 229.3718026961,
            "estimated_diameter_max": 512.8909429502
        }
    },
    "is_potentially_hazardous_asteroid": false,
    "close_approach_data": [
        {
            "close_approach_date": "2010-12-23",
            "close_approach_date_full": "2010-Dec-23 00:48",
            "epoch_date_close_approach": 1293065280000,
            "relative_velocity": {
                "kilometers_per_second": "21.3567702347",
                "kilometers_per_hour": "76884.3728448001",
                "miles_per_hour": "47772.9593379259"
            },
            "miss_distance": {
                "astronomical": "0.1881593563",
                "lunar": "73.1939896007",
                "kilometers": "28148238.923051081",
                "miles": "17490504.6213076778"
            },
            "orbiting_body": "Earth"
        }
    ],
    "orbital_data": {
        "orbit_id": "7",
        "orbit_determination_date": "2017-04-06 08:55:04",
        "first_observation_date": "2011-01-04",
        "last_observation_date": "2011-01-09",
        "data_arc_in_days": 5,
        "observations_used": 20,
        "orbit_uncertainty": "9",
        "minimum_orbit_intersection": ".152749",
        "jupiter_tisserand_invariant": "3.929",
        "epoch_osculation": "2455566.5",
        "eccentricity": ".5005968198634511",
        "semi_major_axis": "1.651848068261737",
        "inclination": "36.97788155924253",
        "ascending_node_longitude": "100.7080053701425",
        "orbital_period": "775.449600482425",
        "perihelion_distance": ".8249381783923267",
        "perihelion_argument": "275.4047650578282",
        "aphelion_distance": "2.478757958131148",
        "perihelion_time": "2455491.719681888555",
        "mean_anomaly": "34.71652381195642",
        "mean_motion": ".4642468056931562",
        "equinox": "J2000",
        "orbit_class": {
            "orbit_class_type": "APO",
            "orbit_class_description": "Near-Earth asteroid orbits which cross the Earth’s orbit similar to that of 1862 Apollo",
            "orbit_class_range": "a (semi-major axis) > 1.0 AU; q (perihelion) < 1.017 AU"
        }
    },
    "is_sentry_object": false
}